{
  "type": "FeatureCollection",
  "features": [
    {
      "type": "Feature",
      "properties": {
        "norad_id": 30315,
        "name": "FENGYUN 1C DEB",
        "group": "fengyun-1c-debris",
        "lat": 71.46203910048264,
        "lon": -144.25031415173166,
        "alt_km": 841.7102152328325,
        "timestamp": "2025-12-25T19:00:39.626243+00:00",
        "meta_object_name": "FENGYUN 1C DEB",
        "meta_object_id": "1999-025AAC",
        "meta_epoch": "2025-12-25T00:09:11.452320",
        "meta_mean_motion": 14.19081492,
        "meta_eccentricity": 0.00346178,
        "meta_inclination": 98.6016,
        "meta_ra_of_asc_node": 8.1552,
        "meta_arg_of_pericenter": 324.6569,
        "meta_mean_anomaly": 89.7078,
        "meta_ephemeris_type": 0,
        "meta_classification_type": "U",
        "meta_norad_cat_id": 30315,
        "meta_element_set_no": 999,
        "meta_rev_at_epoch": 97881,
        "meta_bstar": 0.00032501192,
        "meta_mean_motion_dot": 6.4e-06,
        "meta_mean_motion_ddot": 0,
        "tle_line1": "1 30315U 99025AAC 25359.00638255  .00000640  00000+0  32501-3 0  9993",
        "tle_line2": "2 30315  98.6016   8.1552 0034617 324.6569  89.7078 14.19081492978812"
      },
      "geometry": {
        "type": "Point",
        "coordinates": [
          -144.25031415173166,
          71.46203910048264
        ]
      }
    },
    {
      "type": "Feature",
      "properties": {
        "norad_id": 30316,
        "name": "FENGYUN 1C DEB",
        "group": "fengyun-1c-debris",
        "lat": 76.16433957125557,
        "lon": -39.153230890149985,
        "alt_km": 702.9790397722936,
        "timestamp": "2025-12-25T19:00:39.626253+00:00",
        "meta_object_name": "FENGYUN 1C DEB",
        "meta_object_id": "1999-025AAD",
        "meta_epoch": "2025-12-25T05:21:34.721856",
        "meta_mean_motion": 14.56278684,
        "meta_eccentricity": 0.0035142,
        "meta_inclination": 98.6477,
        "meta_ra_of_asc_node": 102.0917,
        "meta_arg_of_pericenter": 0.7198,
        "meta_mean_anomaly": 359.4043,
        "meta_ephemeris_type": 0,
        "meta_classification_type": "U",
        "meta_norad_cat_id": 30316,
        "meta_element_set_no": 999,
        "meta_rev_at_epoch": 98518,
        "meta_bstar": 0.0021656266,
        "meta_mean_motion_dot": 9.627e-05,
        "meta_mean_motion_ddot": 0,
        "tle_line1": "1 30316U 99025AAD 25359.22331854  .00009627  00000+0  21656-2 0  9995",
        "tle_line2": "2 30316  98.6477 102.0917 0035142   0.7198 359.4043 14.56278684985186"
      },
      "geometry": {
        "type": "Point",
        "coordinates": [
          -39.153230890149985,
          76.16433957125557
        ]
      }
    },
    {
      "type": "Feature",
      "properties": {
        "norad_id": 30317,
        "name": "FENGYUN 1C DEB",
        "group": "fengyun-1c-debris",
        "lat": -67.85057745606088,
        "lon": 157.5628315192746,
        "alt_km": 859.8163936793298,
        "timestamp": "2025-12-25T19:00:39.626263+00:00",
        "meta_object_name": "FENGYUN 1C DEB",
        "meta_object_id": "1999-025AAE",
        "meta_epoch": "2025-12-24T17:55:58.467936",
        "meta_mean_motion": 14.0695344,
        "meta_eccentricity": 0.00241918,
        "meta_inclination": 98.7866,
        "meta_ra_of_asc_node": 358.8786,
        "meta_arg_of_pericenter": 241.5937,
        "meta_mean_anomaly": 118.2794,
        "meta_ephemeris_type": 0,
        "meta_classification_type": "U",
        "meta_norad_cat_id": 30317,
        "meta_element_set_no": 999,
        "meta_rev_at_epoch": 97182,
        "meta_bstar": 6.7649773e-05,
        "meta_mean_motion_dot": 7e-07,
        "meta_mean_motion_ddot": 0,
        "tle_line1": "1 30317U 99025AAE 25358.74720449  .00000070  00000+0  67650-4 0  9993",
        "tle_line2": "2 30317  98.7866 358.8786 0024191 241.5937 118.2794 14.06953440971828"
      },
      "geometry": {
        "type": "Point",
        "coordinates": [
          157.5628315192746,
          -67.85057745606088
        ]
      }
    },
    {
      "type": "Feature",
      "properties": {
        "norad_id": 30320,
        "name": "FENGYUN 1C DEB",
        "group": "fengyun-1c-debris",
        "lat": -62.9364515482872,
        "lon": 77.57645306195407,
        "alt_km": 856.434637508919,
        "timestamp": "2025-12-25T19:00:39.626274+00:00",
        "meta_object_name": "FENGYUN 1C DEB",
        "meta_object_id": "1999-025AAH",
        "meta_epoch": "2025-12-24T16:28:22.156320",
        "meta_mean_motion": 13.98561816,
        "meta_eccentricity": 0.008484,
        "meta_inclination": 99.1861,
        "meta_ra_of_asc_node": 58.0048,
        "meta_arg_of_pericenter": 261.6143,
        "meta_mean_anomaly": 229.1586,
        "meta_ephemeris_type": 0,
        "meta_classification_type": "U",
        "meta_norad_cat_id": 30320,
        "meta_element_set_no": 999,
        "meta_rev_at_epoch": 96574,
        "meta_bstar": 0.00030382,
        "meta_mean_motion_dot": 4.03e-06,
        "meta_mean_motion_ddot": 0,
        "tle_line1": "1 30320U 99025AAH 25358.68636755  .00000403  00000+0  30382-3 0  9997",
        "tle_line2": "2 30320  99.1861  58.0048 0084840 261.6143 229.1586 13.98561816965748"
      },
      "geometry": {
        "type": "Point",
        "coordinates": [
          77.57645306195407,
          -62.9364515482872
        ]
      }
    },
    {
      "type": "Feature",
      "properties": {
        "norad_id": 30321,
        "name": "FENGYUN 1C DEB",
        "group": "fengyun-1c-debris",
        "lat": 63.320857545416715,
        "lon": -163.87834864328542,
        "alt_km": 825.4063516214455,
        "timestamp": "2025-12-25T19:00:39.626284+00:00",
        "meta_object_name": "FENGYUN 1C DEB",
        "meta_object_id": "1999-025AAJ",
        "meta_epoch": "2025-12-24T22:26:28.346784",
        "meta_mean_motion": 14.16654925,
        "meta_eccentricity": 0.006039,
        "meta_inclination": 98.6565,
        "meta_ra_of_asc_node": 357.6397,
        "meta_arg_of_pericenter": 201.4039,
        "meta_mean_anomaly": 225.9813,
        "meta_ephemeris_type": 0,
        "meta_classification_type": "U",
        "meta_norad_cat_id": 30321,
        "meta_element_set_no": 999,
        "meta_rev_at_epoch": 97716,
        "meta_bstar": 0.00027038,
        "meta_mean_motion_dot": 5.07e-06,
        "meta_mean_motion_ddot": 0,
        "tle_line1": "1 30321U 99025AAJ 25358.93505031  .00000507  00000+0  27038-3 0  9997",
        "tle_line2": "2 30321  98.6565 357.6397 0060390 201.4039 225.9813 14.16654925977160"
      },
      "geometry": {
        "type": "Point",
        "coordinates": [
          -163.87834864328542,
          63.320857545416715
        ]
      }
    },
    {
      "type": "Feature",
      "properties": {
        "norad_id": 30322,
        "name": "FENGYUN 1C DEB",
        "group": "fengyun-1c-debris",
        "lat": -5.8131518729246965,
        "lon": -142.59127433326168,
        "alt_km": 944.2427048981453,
        "timestamp": "2025-12-25T19:00:39.626294+00:00",
        "meta_object_name": "FENGYUN 1C DEB",
        "meta_object_id": "1999-025AAK",
        "meta_epoch": "2025-12-25T01:57:42.358464",
        "meta_mean_motion": 14.06148273,
        "meta_eccentricity": 0.01263665,
        "meta_inclination": 98.3986,
        "meta_ra_of_asc_node": 215.8877,
        "meta_arg_of_pericenter": 217.8356,
        "meta_mean_anomaly": 141.3882,
        "meta_ephemeris_type": 0,
        "meta_classification_type": "U",
        "meta_norad_cat_id": 30322,
        "meta_element_set_no": 999,
        "meta_rev_at_epoch": 96373,
        "meta_bstar": 0.001036722,
        "meta_mean_motion_dot": 1.792e-05,
        "meta_mean_motion_ddot": 0,
        "tle_line1": "1 30322U 99025AAK 25359.08174026  .00001792  00000+0  10367-2 0  9994",
        "tle_line2": "2 30322  98.3986 215.8877 0126366 217.8356 141.3882 14.06148273963730"
      },
      "geometry": {
        "type": "Point",
        "coordinates": [
          -142.59127433326168,
          -5.8131518729246965
        ]
      }
    },
    {
      "type": "Feature",
      "properties": {
        "norad_id": 30325,
        "name": "FENGYUN 1C DEB",
        "group": "fengyun-1c-debris",
        "lat": 16.42938765980201,
        "lon": -158.6629619963942,
        "alt_km": 855.9246702530772,
        "timestamp": "2025-12-25T19:00:39.626304+00:00",
        "meta_object_name": "FENGYUN 1C DEB",
        "meta_object_id": "1999-025AAL",
        "meta_epoch": "2025-12-23T18:31:16.264128",
        "meta_mean_motion": 14.09107979,
        "meta_eccentricity": 0.00155616,
        "meta_inclination": 98.7322,
        "meta_ra_of_asc_node": 16.7817,
        "meta_arg_of_pericenter": 220.3959,
        "meta_mean_anomaly": 139.6057,
        "meta_ephemeris_type": 0,
        "meta_classification_type": "U",
        "meta_norad_cat_id": 30325,
        "meta_element_set_no": 999,
        "meta_rev_at_epoch": 97171,
        "meta_bstar": 0.00014655586,
        "meta_mean_motion_dot": 2.12e-06,
        "meta_mean_motion_ddot": 0,
        "tle_line1": "1 30325U 99025AAL 25357.77171602  .00000212  00000+0  14656-3 0  9990",
        "tle_line2": "2 30325  98.7322  16.7817 0015561 220.3959 139.6057 14.09107979971717"
      },
      "geometry": {
        "type": "Point",
        "coordinates": [
          -158.6629619963942,
          16.42938765980201
        ]
      }
    }
  ]
}